STARLINK-11515 [DTC]    
1 62556U 25006C   26139.23345061  .00144636  00000+0  11073-2 0  9999
2 62556  43.0050  74.9913 0003299 262.4270  97.6223 15.70919946 77696
STARLINK-11478 [DTC]    
1 62557U 25006D   26139.50002315 -.00258144  00000+0 -20615-2 0  9996
2 62557  43.0016  73.0860 0001457 274.2404 275.3263 15.70952260  6028
STARLINK-11358 [DTC]    
1 62558U 25006E   26139.20690176  .00118001  00000+0  90559-3 0  9992
2 62558  43.0002  74.7763 0003406 243.9411 116.1107 15.70953989 77690
STARLINK-11517 [DTC]    
1 62559U 25006F   26139.53545042  .00173329  00000+0  13243-2 0  9998
2 62559  43.0011  72.9469 0000328   2.5265 357.5604 15.70875090 77745
STARLINK-11519 [DTC]    
1 62560U 25006G   26139.23967372  .00123612  00000+0  95111-3 0  9996
2 62560  43.0028  75.0409 0001891 268.7026  91.3625 15.70876184 77695
STARLINK-11451 [DTC]    
1 62561U 25006H   26139.51421810  .00181068  00000+0  13743-2 0  9999
2 62561  43.0053  72.7771 0000723 343.6219  16.4625 15.71009213 77746
STARLINK-11530 [DTC]    
1 62562U 25006J   26139.23876208  .00120157  00000+0  92465-3 0  9995
2 62562  43.0036  75.0322 0002064 266.5563  93.5068 15.70885117 77696
STARLINK-11536 [DTC]    
1 62563U 25006K   26139.51952304  .00230496  00000+0  17469-2 0  9997
2 62563  43.0014  72.8178 0000816   2.9328 357.1545 15.70888723 77742
STARLINK-11540 [DTC]    
1 62564U 25006L   26139.22283426  .00132754  00000+0  10205-2 0  9997
2 62564  43.0013  74.9043 0002094 253.9661 106.0976 15.70866209 77692
STARLINK-11523 [DTC]    
1 62565U 25006M   26139.10098022  .00117278  00000+0  90262-3 0  9997
2 62565  43.0014  75.7095 0002154 254.7258 105.3372 15.70892048 77678
STARLINK-11525 [DTC]    
1 62566U 25006N   26139.18049106 -.00065770  00000+0 -51407-3 0  9994
2 62566  42.9997  75.4566 0001099 249.8112 110.2637 15.70797131 77685
STARLINK-32752          
1 62567U 25006P   26139.38538073  .00009141  00000+0  34113-3 0  9996
2 62567  43.0014 253.4158 0002040 243.9757 116.0885 15.27593943 75673
STARLINK-32760          
1 62568U 25006Q   26139.39052144  .00008367  00000+0  31309-3 0  9991
2 62568  43.0014 253.4399 0001710 261.1912  98.8746 15.27593225 75675
STARLINK-32715          
1 62569U 25006R   26139.33413303  .00011949  00000+0  44275-3 0  9990
2 62569  43.0006 253.8878 0000921 261.9213  98.1535 15.27601970 75663
STARLINK-32764          
1 62570U 25006S   26139.01491716  .00017139  00000+0  63061-3 0  9992
2 62570  43.0001 255.7856 0001571 290.0719  69.9963 15.27595153 75614
STARLINK-32773          
1 62571U 25006T   26139.36738964  .00024538  00000+0  89835-3 0  9998
2 62571  43.0018 253.2745 0001296 265.3857  94.6846 15.27575757 75674
STARLINK-32750          
1 62572U 25006U   26138.63015342  .00014373  00000+0  53058-3 0  9990
2 62572  43.0017 257.1927 0001082 261.9960  98.0769 15.27594265 75564
STARLINK-32771          
1 62573U 25006V   26139.35968932  .00013331  00000+0  49285-3 0  9993
2 62573  43.0019 253.2143 0001356 264.4156  95.6541 15.27596470 75676
STARLINK-32766          
1 62574U 25006W   26139.37767736  .00008893  00000+0  33214-3 0  9997
2 62574  43.0034 253.3497 0002010 284.2994  75.7634 15.27594354 75676
CENTISPACE-1 S7         
1 62576U 25007B   26139.41956024 -.00000055  00000+0  81194-4 0  9999
2 62576  54.9778  32.6075 0013029  17.8850 342.2562 13.80591260 70742
CENTISPACE-1 S8         
1 62577U 25007C   26139.40566918 -.00000060  00000+0  76187-4 0  9990
2 62577  54.9864  32.2176 0016135  67.6843 292.5822 13.80628404 70751
CENTISPACE-1 S9         
1 62578U 25007D   26139.43396108 -.00000058  00000+0  78131-4 0  9994
2 62578  54.9838  32.8434 0012229  27.9894 332.1718 13.80592967 70749
CENTISPACE-1 S10        
1 62579U 25007E   26139.38319301 -.00000054  00000+0  82454-4 0  9998
2 62579  54.9904  32.1809 0012648  44.7198 315.4776 13.80598464 70759
CENTISPACE-1 S11        
1 62580U 25007F   26139.39765466 -.00000061  00000+0  75029-4 0  9996
2 62580  54.9790  31.7927 0012374  46.5832 313.6153 13.80597200 70757
CENTISPACE-1 S12        
1 62581U 25007G   26139.42711513 -.00000058  00000+0  78231-4 0  9999
2 62581  54.9783  31.9712 0017307  72.2189 288.0654 13.80624999 70764
CENTISPACE-1 S13        
1 62582U 25007H   26139.41226359 -.00000063  00000+0  73354-4 0  9995
2 62582  54.9823  32.1199 0012221  36.7021 323.4770 13.80601129 70754
CENTISPACE-1 S14        
1 62583U 25007J   26139.39056784 -.00000057  00000+0  79033-4 0  9999
2 62583  54.9856  33.2826 0012522  43.2822 316.9116 13.80593831 70735
CENTISPACE-1 S15        
1 62584U 25007K   26139.44815722 -.00000042  00000+0  93260-4 0  9993
2 62584  54.9879  33.0581 0014203  26.3592 333.8085 13.80612613 70767
CENTISPACE-1 S16        
1 62585U 25007L   26139.44100977 -.00000048  00000+0  87539-4 0  9991
2 62585  54.9895  31.7967 0013335  39.1286 321.0632 13.80607149 70749
STARLINK-11547 [DTC]    
1 62587U 25008A   26139.46884168  .00137845  00000+0  10592-2 0  9995
2 62587  43.0005  59.7417 0000683 272.6376  87.4413 15.70858769 77248
STARLINK-11185 [DTC]    
1 62588U 25008B   26139.50057030  .00160576  00000+0  12295-2 0  9990
2 62588  43.0009  59.1014 0000347 229.6447 130.4391 15.70867172 77251
STARLINK-11513 [DTC]    
1 62589U 25008C   26139.26746899  .00129909  00000+0  99928-3 0  9996
2 62589  43.0009  60.8049 0001495 259.2652 100.8047 15.70860971 77216
STARLINK-11397 [DTC]    
1 62590U 25008D   26139.48463826  .00233172  00000+0  17517-2 0  9999
2 62590  43.0014  58.9732 0002565 289.2741  70.7850 15.71089374 78367
STARLINK-11420 [DTC]    
1 62591U 25008E   26139.14561014  .00126443  00000+0  97116-3 0  9997
2 62591  43.0009  61.6147 0002522 259.2905 100.7679 15.70907360 78372
STARLINK-11415 [DTC]    
1 62592U 25008F   26139.47946713  .00203676  00000+0  15381-2 0  9994
2 62592  43.0021  59.8252 0001231   3.4690 356.6186 15.71057105 78356
STARLINK-11413 [DTC]    
1 62593U 25008G   26139.47415559  .00167363  00000+0  12799-2 0  9996
2 62593  42.9996  59.7828 0001056  41.6343 318.4605 15.70873234 78314
STARLINK-11416 [DTC]    
1 62594U 25008H   26139.14217237  .00213321  00000+0  10443-2 0  9994
2 62594  42.9921  58.8390 0007528 205.4967 154.5534 15.80850078 78221
STARLINK-11535 [DTC]    
1 62595U 25008J   26139.48994931  .00227898  00000+0  17135-2 0  9994
2 62595  43.0024  59.0141 0002126 297.2270  62.8381 15.71085573 78276
STARLINK-11521 [DTC]    
1 62597U 25008L   26139.18795273  .00149365  00000+0  11443-2 0  9999
2 62597  43.0043  61.0555 0002711 266.8658  93.1899 15.70888286 78376
STARLINK-11258 [DTC]    
1 62598U 25008M   26139.12967998  .00146794  00000+0  11231-2 0  9997
2 62598  43.0040  61.4797 0002759 263.6661  96.3893 15.70928340 78361
STARLINK-11529 [DTC]    
1 62599U 25008N   26139.13499310  .00174756  00000+0  13342-2 0  9991
2 62599  43.0019  61.5221 0001846 271.9688  88.0968 15.70888788 78371
STARLINK-32747          
1 62600U 25008P   26139.32696463  .00030080  00000+0  10966-2 0  9993
2 62600  42.9998 239.3338 0001182 248.5580 111.5146 15.27626389 76362
STARLINK-32767          
1 62601U 25008Q   26139.55252521  .00012755  00000+0  47190-3 0  9991
2 62601  42.9994 237.5776 0001569 275.4212  84.6461 15.27603479 76461
STARLINK-32769          
1 62602U 25008R   26139.55639042  .00019417  00000+0  71264-3 0  9990
2 62602  43.0001 237.6041 0001544 287.6759  72.3924 15.27608846 76464
STARLINK-32778          
1 62603U 25008S   26139.33851384  .00027952  00000+0  10190-2 0  9995
2 62603  43.0033 239.4227 0001534 254.3645 105.7037 15.27657379 76360
STARLINK-32710          
1 62604U 25008T   26139.53838361 -.00001452  00000+0 -43229-4 0  9998
2 62604  43.0023 237.4724 0002150 277.2289  82.8318 15.27582392 76407
STARLINK-32742          
1 62605U 25008U   26139.54224619  .00013827  00000+0  51076-3 0  9990
2 62605  43.0020 237.5011 0001974 270.6970  89.3656 15.27598926 76454
STARLINK-32783          
1 62606U 25008V   26139.56023808  .00011163  00000+0  41442-3 0  9997
2 62606  42.9994 237.6355 0001518 263.8607  96.2072 15.27592054 76400
STARLINK-32784          
1 62607U 25008W   26139.53240160  .00041203  00000+0  90407-3 0  9990
2 62607  42.9949 230.4675 0016657  18.5490 341.5972 15.43224563 76547
BUZZER-1                
1 62609U 25009A   26139.44313997  .00002158  00000+0  99468-4 0  9995
2 62609  97.3926 218.2008 0009298  80.5674 279.6612 15.21308083 74320
EDISON-1                
1 62610U 25009B   26139.50045406  .00008781  00000+0  29683-3 0  9990
2 62610  97.4006 222.0701 0006404  63.0182 297.1712 15.30859986 74566
BALKAN-1                
1 62611U 25009C   26139.46774551  .00004155  00000+0  17125-3 0  9995
2 62611  97.3923 219.0707 0008573  80.7552 279.4655 15.24606841 74384
GESAT GEN1              
1 62612U 25009D   26139.47523346  .00005207  00000+0  19292-3 0  9997
2 62612  97.4019 221.6968 0002076  85.8028 274.3449 15.28077870 74536
FLOCK 4G-8              
1 62613U 25009E   26139.49414981  .00007181  00000+0  25653-3 0  9995
2 62613  97.4007 221.6323 0005343  72.0556 288.1267 15.29133142 74530
TRANSPORTER-12 OBJECT G 
1 62615U 25009G   26139.22172044  .00003897  00000+0  15715-3 0  9997
2 62615  97.3945 219.5141 0007711  77.0335 283.1764 15.25385649 74384
INNOCUBE (TUBSAT-31)    
1 62616U 25009H   26139.50234235  .00005218  00000+0  20530-3 0  9990
2 62616  97.3903 219.8037 0007425  80.0421 280.1655 15.26056401 74443
SCOT-1 (SCOT)           
1 62617U 25009J   26139.20223359  .00037330  00000+0  64970-3 0  9999
2 62617  97.3860 226.2274 0002862  79.2813 280.8761 15.50685123 74852
AE1D                    
1 62618U 25009K   26139.21367729  .00052307  00000+0  75225-3 0  9997
2 62618  97.3961 227.9170 0002387  91.6212 268.5316 15.55911454 74933
IRIS-F3                 
1 62619U 25009L   26139.48148139  .00003171  00000+0  12366-3 0  9991
2 62619  97.4045 220.5534 0007995  71.4699 288.7408 15.26649692 74448
